{"fetched_at":"2026-07-06T18:35:14.557Z","source":"https://celestrak.org/NORAD/elements/gp.php?GROUP=oneweb&FORMAT=JSON","constellation":"oneweb","records":[{"OBJECT_NAME":"ONEWEB-0349","OBJECT_ID":"2021-090C","EPOCH":"2026-07-06T05:49:47.840448","CLASSIFICATION_TYPE":"U","MEAN_MOTION":13.20774466,"ECCENTRICITY":0.00021198,"INCLINATION":87.9194,"RA_OF_ASC_NODE":270.6444,"ARG_OF_PERICENTER":99.4398,"MEAN_ANOMALY":260.6975,"EPHEMERIS_TYPE":0,"NORAD_CAT_ID":49281,"ELEMENT_SET_NO":999,"REV_AT_EPOCH":23234,"BSTAR":0.00023017401,"MEAN_MOTION_DOT":0.00000107,"MEAN_MOTION_DDOT":0},{"OBJECT_NAME":"ONEWEB-0353","OBJECT_ID":"2021-090D","EPOCH":"2026-07-06T07:35:25.772928","CLASSIFICATION_TYPE":"U","MEAN_MOTION":13.14502512,"ECCENTRICITY":0.00018447,"INCLINATION":87.8973,"RA_OF_ASC_NODE":285.8934,"ARG_OF_PERICENTER":106.9263,"MEAN_ANOMALY":253.2069,"EPHEMERIS_TYPE":0,"NORAD_CAT_ID":49282,"ELEMENT_SET_NO":999,"REV_AT_EPOCH":23009,"BSTAR":-0.00012304593,"MEAN_MOTION_DOT":-3.3e-7,"MEAN_MOTION_DDOT":0},{"OBJECT_NAME":"ONEWEB-0356","OBJECT_ID":"2021-090E","EPOCH":"2026-07-06T05:47:22.612416","CLASSIFICATION_TYPE":"U","MEAN_MOTION":13.20769862,"ECCENTRICITY":0.00014311,"INCLINATION":87.9192,"RA_OF_ASC_NODE":270.6379,"ARG_OF_PERICENTER":81.6547,"MEAN_ANOMALY":278.4748,"EPHEMERIS_TYPE":0,"NORAD_CAT_ID":49283,"ELEMENT_SET_NO":999,"REV_AT_EPOCH":23234,"BSTAR":0.00020974461,"MEAN_MOTION_DOT":9.8e-7,"MEAN_MOTION_DDOT":0},{"OBJECT_NAME":"ONEWEB-0358","OBJECT_ID":"2021-090F","EPOCH":"2026-07-06T04:50:13.333344","CLASSIFICATION_TYPE":"U","MEAN_MOTION":13.20777869,"ECCENTRICITY":0.0002013,"INCLINATION":87.9193,"RA_OF_ASC_NODE":270.6532,"ARG_OF_PERICENTER":94.6662,"MEAN_ANOMALY":265.4701,"EPHEMERIS_TYPE":0,"NORAD_CAT_ID":49284,"ELEMENT_SET_NO":999,"REV_AT_EPOCH":23306,"BSTAR":0.00011076651,"MEAN_MOTION_DOT":5.8e-7,"MEAN_MOTION_DDOT":0},{"OBJECT_NAME":"ONEWEB-0359","OBJECT_ID":"2021-090G","EPOCH":"2026-07-06T04:37:03.824832","CLASSIFICATION_TYPE":"U","MEAN_MOTION":13.20769619,"ECCENTRICITY":0.00021933,"INCLINATION":87.9193,"RA_OF_ASC_NODE":270.6477,"ARG_OF_PERICENTER":92.909,"MEAN_ANOMALY":267.2295,"EPHEMERIS_TYPE":0,"NORAD_CAT_ID":49285,"ELEMENT_SET_NO":999,"REV_AT_EPOCH":23304,"BSTAR":0.0002691408,"MEAN_MOTION_DOT":0.00000122,"MEAN_MOTION_DDOT":0},{"OBJECT_NAME":"ONEWEB-0360","OBJECT_ID":"2021-090H","EPOCH":"2026-07-06T06:11:38.673600","CLASSIFICATION_TYPE":"U","MEAN_MOTION":13.20771593,"ECCENTRICITY":0.0002181,"INCLINATION":87.9193,"RA_OF_ASC_NODE":270.6409,"ARG_OF_PERICENTER":99.3887,"MEAN_ANOMALY":260.7493,"EPHEMERIS_TYPE":0,"NORAD_CAT_ID":49286,"ELEMENT_SET_NO":999,"REV_AT_EPOCH":23236,"BSTAR":0.00028055512,"MEAN_MOTION_DOT":0.00000127,"MEAN_MOTION_DDOT":0},{"OBJECT_NAME":"ONEWEB-0361","OBJECT_ID":"2021-090J","EPOCH":"2026-07-06T05:44:58.025472","CLASSIFICATION_TYPE":"U","MEAN_MOTION":13.20772551,"ECCENTRICITY":0.00020803,"INCLINATION":87.9195,"RA_OF_ASC_NODE":270.6428,"ARG_OF_PERICENTER":95.5121,"MEAN_ANOMALY":264.625,"EPHEMERIS_TYPE":0,"NORAD_CAT_ID":49287,"ELEMENT_SET_NO":999,"REV_AT_EPOCH":23281,"BSTAR":0.00020102956,"MEAN_MOTION_DOT":9.5e-7,"MEAN_MOTION_DDOT":0},{"OBJECT_NAME":"ONEWEB-0362","OBJECT_ID":"2021-090K","EPOCH":"2026-07-05T19:52:33.464640","CLASSIFICATION_TYPE":"U","MEAN_MOTION":13.1972533,"ECCENTRICITY":0.00021867,"INCLINATION":87.9184,"RA_OF_ASC_NODE":301.2653,"ARG_OF_PERICENTER":104.3433,"MEAN_ANOMALY":255.7943,"EPHEMERIS_TYPE":0,"NORAD_CAT_ID":49288,"ELEMENT_SET_NO":999,"REV_AT_EPOCH":22937,"BSTAR":-0.000037714416,"MEAN_MOTION_DOT":-2e-8,"MEAN_MOTION_DDOT":0},{"OBJECT_NAME":"ONEWEB-0363","OBJECT_ID":"2021-090L","EPOCH":"2026-07-06T06:06:47.559168","CLASSIFICATION_TYPE":"U","MEAN_MOTION":13.20771689,"ECCENTRICITY":0.00018274,"INCLINATION":87.9192,"RA_OF_ASC_NODE":270.6402,"ARG_OF_PERICENTER":92.1089,"MEAN_ANOMALY":268.0253,"EPHEMERIS_TYPE":0,"NORAD_CAT_ID":49289,"ELEMENT_SET_NO":999,"REV_AT_EPOCH":23282,"BSTAR":0.00018388034,"MEAN_MOTION_DOT":8.8e-7,"MEAN_MOTION_DDOT":0},{"OBJECT_NAME":"ONEWEB-0364","OBJECT_ID":"2021-090M","EPOCH":"2026-07-06T07:02:31.185600","CLASSIFICATION_TYPE":"U","MEAN_MOTION":13.20773831,"ECCENTRICITY":0.00020571,"INCLINATION":87.9193,"RA_OF_ASC_NODE":270.64,"ARG_OF_PERICENTER":100.7802,"MEAN_ANOMALY":259.3563,"EPHEMERIS_TYPE":0,"NORAD_CAT_ID":49290,"ELEMENT_SET_NO":999,"REV_AT_EPOCH":23396,"BSTAR":-0.0017909118,"MEAN_MOTION_DOT":-0.00000715,"MEAN_MOTION_DDOT":0},{"OBJECT_NAME":"ONEWEB-0365","OBJECT_ID":"2021-090N","EPOCH":"2026-07-05T18:17:01.629888","CLASSIFICATION_TYPE":"U","MEAN_MOTION":13.19725809,"ECCENTRICITY":0.00019715,"INCLINATION":87.9193,"RA_OF_ASC_NODE":301.2682,"ARG_OF_PERICENTER":103.1576,"MEAN_ANOMALY":256.9777,"EPHEMERIS_TYPE":0,"NORAD_CAT_ID":49291,"ELEMENT_SET_NO":999,"REV_AT_EPOCH":22887,"BSTAR":-0.000013059353,"MEAN_MOTION_DOT":8e-8,"MEAN_MOTION_DDOT":0},{"OBJECT_NAME":"ONEWEB-0366","OBJECT_ID":"2021-090P","EPOCH":"2026-07-06T07:30:51.954912","CLASSIFICATION_TYPE":"U","MEAN_MOTION":13.14502153,"ECCENTRICITY":0.0002017,"INCLINATION":87.8972,"RA_OF_ASC_NODE":285.8956,"ARG_OF_PERICENTER":99.428,"MEAN_ANOMALY":260.7077,"EPHEMERIS_TYPE":0,"NORAD_CAT_ID":49292,"ELEMENT_SET_NO":999,"REV_AT_EPOCH":23007,"BSTAR":-0.00030238745,"MEAN_MOTION_DOT":-9.9e-7,"MEAN_MOTION_DDOT":0},{"OBJECT_NAME":"ONEWEB-0367","OBJECT_ID":"2021-090Q","EPOCH":"2026-07-06T06:05:34.938240","CLASSIFICATION_TYPE":"U","MEAN_MOTION":13.2077316,"ECCENTRICITY":0.00021536,"INCLINATION":87.9195,"RA_OF_ASC_NODE":270.6417,"ARG_OF_PERICENTER":103.6515,"MEAN_ANOMALY":256.4858,"EPHEMERIS_TYPE":0,"NORAD_CAT_ID":49293,"ELEMENT_SET_NO":999,"REV_AT_EPOCH":23234,"BSTAR":0.00021965364,"MEAN_MOTION_DOT":0.00000102,"MEAN_MOTION_DDOT":0},{"OBJECT_NAME":"ONEWEB-0368","OBJECT_ID":"2021-090R","EPOCH":"2026-07-06T05:28:00.583392","CLASSIFICATION_TYPE":"U","MEAN_MOTION":13.20771639,"ECCENTRICITY":0.00013735,"INCLINATION":87.9182,"RA_OF_ASC_NODE":270.655,"ARG_OF_PERICENTER":109.5043,"MEAN_ANOMALY":250.6239,"EPHEMERIS_TYPE":0,"NORAD_CAT_ID":49294,"ELEMENT_SET_NO":999,"REV_AT_EPOCH":23349,"BSTAR":0.000076189773,"MEAN_MOTION_DOT":4.4e-7,"MEAN_MOTION_DDOT":0},{"OBJECT_NAME":"ONEWEB-0369","OBJECT_ID":"2021-090S","EPOCH":"2026-07-05T18:10:12.324576","CLASSIFICATION_TYPE":"U","MEAN_MOTION":13.19725847,"ECCENTRICITY":0.00018986,"INCLINATION":87.9182,"RA_OF_ASC_NODE":301.2753,"ARG_OF_PERICENTER":102.652,"MEAN_ANOMALY":257.4825,"EPHEMERIS_TYPE":0,"NORAD_CAT_ID":49295,"ELEMENT_SET_NO":999,"REV_AT_EPOCH":22886,"BSTAR":0.000046521408,"MEAN_MOTION_DOT":3.2e-7,"MEAN_MOTION_DDOT":0},{"OBJECT_NAME":"ONEWEB-0370","OBJECT_ID":"2021-090T","EPOCH":"2026-07-06T06:18:54.952992","CLASSIFICATION_TYPE":"U","MEAN_MOTION":13.20771872,"ECCENTRICITY":0.00023365,"INCLINATION":87.9194,"RA_OF_ASC_NODE":270.6393,"ARG_OF_PERICENTER":98.1069,"MEAN_ANOMALY":262.033,"EPHEMERIS_TYPE":0,"NORAD_CAT_ID":49296,"ELEMENT_SET_NO":999,"REV_AT_EPOCH":23238,"BSTAR":0.00028042243,"MEAN_MOTION_DOT":0.00000127,"MEAN_MOTION_DDOT":0}]}
