[
  {
    "name": "ONEWEB-0349",
    "noradId": "49281",
    "line1": "1 49281U 21090C   26187.24291482  .00000107  00000+0  23017-3 0  9995",
    "line2": "2 49281  87.9194 270.6444 0002119  99.4398 260.6975 13.20774466232345"
  },
  {
    "name": "ONEWEB-0353",
    "noradId": "49282",
    "line1": "1 49282U 21090D   26187.31627052 -.00000033  00000+0 -12305-3 0  9998",
    "line2": "2 49282  87.8973 285.8934 0001844 106.9263 253.2069 13.14502512230097"
  },
  {
    "name": "ONEWEB-0356",
    "noradId": "49283",
    "line1": "1 49283U 21090E   26187.24123394  .00000098  00000+0  20974-3 0  9991",
    "line2": "2 49283  87.9192 270.6379 0001431  81.6547 278.4748 13.20769862232346"
  },
  {
    "name": "ONEWEB-0358",
    "noradId": "49284",
    "line1": "1 49284U 21090F   26187.20154321  .00000058  00000+0  11077-3 0  9992",
    "line2": "2 49284  87.9193 270.6532 0002013  94.6662 265.4701 13.20777869233069"
  },
  {
    "name": "ONEWEB-0359",
    "noradId": "49285",
    "line1": "1 49285U 21090G   26187.19240538  .00000122  00000+0  26914-3 0  9995",
    "line2": "2 49285  87.9193 270.6477 0002193  92.9090 267.2295 13.20769619233043"
  },
  {
    "name": "ONEWEB-0360",
    "noradId": "49286",
    "line1": "1 49286U 21090H   26187.25808650  .00000127  00000+0  28056-3 0  9992",
    "line2": "2 49286  87.9193 270.6409 0002181  99.3887 260.7493 13.20771593232367"
  },
  {
    "name": "ONEWEB-0361",
    "noradId": "49287",
    "line1": "1 49287U 21090J   26187.23956048  .00000095  00000+0  20103-3 0  9995",
    "line2": "2 49287  87.9195 270.6428 0002080  95.5121 264.6250 13.20772551232817"
  },
  {
    "name": "ONEWEB-0362",
    "noradId": "49288",
    "line1": "1 49288U 21090K   26186.82816510 -.00000002  00000+0 -37714-4 0  9996",
    "line2": "2 49288  87.9184 301.2653 0002186 104.3433 255.7943 13.19725330229377"
  },
  {
    "name": "ONEWEB-0363",
    "noradId": "49289",
    "line1": "1 49289U 21090L   26187.25471712  .00000088  00000+0  18388-3 0  9993",
    "line2": "2 49289  87.9192 270.6402 0001827  92.1089 268.0253 13.20771689232825"
  },
  {
    "name": "ONEWEB-0364",
    "noradId": "49290",
    "line1": "1 49290U 21090M   26187.29341650 -.00000715  00000+0 -17909-2 0  9992",
    "line2": "2 49290  87.9193 270.6400 0002057 100.7802 259.3563 13.20773831233965"
  },
  {
    "name": "ONEWEB-0365",
    "noradId": "49291",
    "line1": "1 49291U 21090N   26186.76182442  .00000008  00000+0 -13059-4 0  9994",
    "line2": "2 49291  87.9193 301.2682 0001971 103.1576 256.9777 13.19725809228872"
  },
  {
    "name": "ONEWEB-0366",
    "noradId": "49292",
    "line1": "1 49292U 21090P   26187.31310133 -.00000099  00000+0 -30239-3 0  9996",
    "line2": "2 49292  87.8972 285.8956 0002017  99.4280 260.7077 13.14502153230070"
  },
  {
    "name": "ONEWEB-0367",
    "noradId": "49293",
    "line1": "1 49293U 21090Q   26187.25387660  .00000102  00000+0  21965-3 0  9998",
    "line2": "2 49293  87.9195 270.6417 0002153 103.6515 256.4858 13.20773160232349"
  },
  {
    "name": "ONEWEB-0368",
    "noradId": "49294",
    "line1": "1 49294U 21090R   26187.22778453  .00000044  00000+0  76190-4 0  9996",
    "line2": "2 49294  87.9182 270.6550 0001373 109.5043 250.6239 13.20771639233493"
  },
  {
    "name": "ONEWEB-0369",
    "noradId": "49295",
    "line1": "1 49295U 21090S   26186.75708709  .00000032  00000+0  46521-4 0  9993",
    "line2": "2 49295  87.9182 301.2753 0001898 102.6520 257.4825 13.19725847228865"
  },
  {
    "name": "ONEWEB-0370",
    "noradId": "49296",
    "line1": "1 49296U 21090T   26187.26313603  .00000127  00000+0  28042-3 0  9998",
    "line2": "2 49296  87.9194 270.6393 0002336  98.1069 262.0330 13.20771872232389"
  }
]